{
  "type": "FeatureCollection",
  "features": [
    {
      "type": "Feature",
      "properties": {
        "norad_id": 39773,
        "name": "EUTELSAT 3B",
        "group": "eutelsat",
        "lat": 0.03310472862950702,
        "lon": 7.148607107853674,
        "alt_km": 35800.86729917447,
        "timestamp": "2025-12-10T18:56:59.733437+00:00",
        "meta_object_name": "EUTELSAT 3B",
        "meta_object_id": "2014-030A",
        "meta_epoch": "2025-12-10T06:29:38.861088",
        "meta_mean_motion": 1.00271741,
        "meta_eccentricity": 0.0004689,
        "meta_inclination": 0.0626,
        "meta_ra_of_asc_node": 343.8632,
        "meta_arg_of_pericenter": 244.6896,
        "meta_mean_anomaly": 311.215,
        "meta_ephemeris_type": 0,
        "meta_classification_type": "U",
        "meta_norad_cat_id": 39773,
        "meta_element_set_no": 999,
        "meta_rev_at_epoch": 4217,
        "meta_bstar": 0,
        "meta_mean_motion_dot": 2.3e-07,
        "meta_mean_motion_ddot": 0,
        "tle_line1": "1 39773U 14030A   25344.27058867  .00000023  00000+0  00000+0 0  9991",
        "tle_line2": "2 39773   0.0626 343.8632 0004689 244.6896 311.2150  1.00271741 42170"
      },
      "geometry": {
        "type": "Point",
        "coordinates": [
          7.148607107853674,
          0.03310472862950702
        ]
      }
    },
    {
      "type": "Feature",
      "properties": {
        "norad_id": 40425,
        "name": "EUTELSAT 115 WEST B",
        "group": "eutelsat",
        "lat": 0.008327600823680802,
        "lon": -110.89897531222199,
        "alt_km": 35787.24851045811,
        "timestamp": "2025-12-10T18:56:59.733449+00:00",
        "meta_object_name": "EUTELSAT 115 WEST B",
        "meta_object_id": "2015-010B",
        "meta_epoch": "2025-12-10T08:42:38.903328",
        "meta_mean_motion": 1.00269692,
        "meta_eccentricity": 1.71e-05,
        "meta_inclination": 0.0097,
        "meta_ra_of_asc_node": 147.1006,
        "meta_arg_of_pericenter": 317.0507,
        "meta_mean_anomaly": 350.9478,
        "meta_ephemeris_type": 0,
        "meta_classification_type": "U",
        "meta_norad_cat_id": 40425,
        "meta_element_set_no": 999,
        "meta_rev_at_epoch": 3950,
        "meta_bstar": 0,
        "meta_mean_motion_dot": -2.1e-07,
        "meta_mean_motion_ddot": 0,
        "tle_line1": "1 40425U 15010B   25344.36295027 -.00000021  00000+0  00000+0 0  9996",
        "tle_line2": "2 40425   0.0097 147.1006 0000171 317.0507 350.9478  1.00269692 39502"
      },
      "geometry": {
        "type": "Point",
        "coordinates": [
          -110.89897531222199,
          0.008327600823680802
        ]
      }
    },
    {
      "type": "Feature",
      "properties": {
        "norad_id": 40875,
        "name": "EUTELSAT 8 WEST B",
        "group": "eutelsat",
        "lat": -0.0032725023202860126,
        "lon": -3.9314092330938024,
        "alt_km": 35787.895260067184,
        "timestamp": "2025-12-10T18:56:59.733460+00:00",
        "meta_object_name": "EUTELSAT 8 WEST B",
        "meta_object_id": "2015-039B",
        "meta_epoch": "2025-12-10T06:37:26.585760",
        "meta_mean_motion": 1.00271535,
        "meta_eccentricity": 0.0004175,
        "meta_inclination": 0.0648,
        "meta_ra_of_asc_node": 2.5239,
        "meta_arg_of_pericenter": 257.8515,
        "meta_mean_anomaly": 270.2548,
        "meta_ephemeris_type": 0,
        "meta_classification_type": "U",
        "meta_norad_cat_id": 40875,
        "meta_element_set_no": 999,
        "meta_rev_at_epoch": 3776,
        "meta_bstar": 0,
        "meta_mean_motion_dot": -6.2e-07,
        "meta_mean_motion_ddot": 0,
        "tle_line1": "1 40875U 15039B   25344.27600215 -.00000062  00000+0  00000+0 0  9990",
        "tle_line2": "2 40875   0.0648   2.5239 0004175 257.8515 270.2548  1.00271535 37760"
      },
      "geometry": {
        "type": "Point",
        "coordinates": [
          -3.9314092330938024,
          -0.0032725023202860126
        ]
      }
    },
    {
      "type": "Feature",
      "properties": {
        "norad_id": 41310,
        "name": "EUTELSAT 9B",
        "group": "eutelsat",
        "lat": -0.01734489117936932,
        "lon": 13.076129398293936,
        "alt_km": 35792.00997755629,
        "timestamp": "2025-12-10T18:56:59.733472+00:00",
        "meta_object_name": "EUTELSAT 9B",
        "meta_object_id": "2016-005A",
        "meta_epoch": "2025-12-10T06:21:38.694816",
        "meta_mean_motion": 1.00272631,
        "meta_eccentricity": 0.0004839,
        "meta_inclination": 0.0388,
        "meta_ra_of_asc_node": 57.1944,
        "meta_arg_of_pericenter": 208.2666,
        "meta_mean_anomaly": 278.2089,
        "meta_ephemeris_type": 0,
        "meta_classification_type": "U",
        "meta_norad_cat_id": 41310,
        "meta_element_set_no": 999,
        "meta_rev_at_epoch": 3622,
        "meta_bstar": 0,
        "meta_mean_motion_dot": 6.5e-07,
        "meta_mean_motion_ddot": 0,
        "tle_line1": "1 41310U 16005A   25344.26503119  .00000065  00000+0  00000+0 0  9995",
        "tle_line2": "2 41310   0.0388  57.1944 0004839 208.2666 278.2089  1.00272631 36225"
      },
      "geometry": {
        "type": "Point",
        "coordinates": [
          13.076129398293936,
          -0.01734489117936932
        ]
      }
    },
    {
      "type": "Feature",
      "properties": {
        "norad_id": 41382,
        "name": "EUTELSAT 65 WEST A",
        "group": "eutelsat",
        "lat": -0.059672522140361846,
        "lon": -61.179988540759766,
        "alt_km": 35776.66135250772,
        "timestamp": "2025-12-10T18:56:59.733489+00:00",
        "meta_object_name": "EUTELSAT 65 WEST A",
        "meta_object_id": "2016-014A",
        "meta_epoch": "2025-12-10T04:07:38.715168",
        "meta_mean_motion": 1.00272579,
        "meta_eccentricity": 0.00026195,
        "meta_inclination": 0.0501,
        "meta_ra_of_asc_node": 7.2682,
        "meta_arg_of_pericenter": 258.3578,
        "meta_mean_anomaly": 170.2329,
        "meta_ephemeris_type": 0,
        "meta_classification_type": "U",
        "meta_norad_cat_id": 41382,
        "meta_element_set_no": 999,
        "meta_rev_at_epoch": 3564,
        "meta_bstar": 0,
        "meta_mean_motion_dot": -2.73e-06,
        "meta_mean_motion_ddot": 0,
        "tle_line1": "1 41382U 16014A   25344.17197587 -.00000273  00000+0  00000+0 0  9994",
        "tle_line2": "2 41382   0.0501   7.2682 0002619 258.3578 170.2329  1.00272579 35642"
      },
      "geometry": {
        "type": "Point",
        "coordinates": [
          -61.179988540759766,
          -0.059672522140361846
        ]
      }
    },
    {
      "type": "Feature",
      "properties": {
        "norad_id": 41589,
        "name": "EUTELSAT 117 WEST B",
        "group": "eutelsat",
        "lat": 0.007867995077097569,
        "lon": -112.9799949217442,
        "alt_km": 35787.08431156054,
        "timestamp": "2025-12-10T18:56:59.733514+00:00",
        "meta_object_name": "EUTELSAT 117 WEST B",
        "meta_object_id": "2016-038B",
        "meta_epoch": "2025-12-10T08:50:38.825088",
        "meta_mean_motion": 1.00272599,
        "meta_eccentricity": 3.07e-05,
        "meta_inclination": 0.0104,
        "meta_ra_of_asc_node": 149.7768,
        "meta_arg_of_pericenter": 293.6886,
        "meta_mean_anomaly": 11.5535,
        "meta_ephemeris_type": 0,
        "meta_classification_type": "U",
        "meta_norad_cat_id": 41589,
        "meta_element_set_no": 999,
        "meta_rev_at_epoch": 3477,
        "meta_bstar": 0,
        "meta_mean_motion_dot": -8e-08,
        "meta_mean_motion_ddot": 0,
        "tle_line1": "1 41589U 16038B   25344.36850492 -.00000008  00000+0  00000+0 0  9997",
        "tle_line2": "2 41589   0.0104 149.7768 0000307 293.6886  11.5535  1.00272599 34774"
      },
      "geometry": {
        "type": "Point",
        "coordinates": [
          -112.9799949217442,
          0.007867995077097569
        ]
      }
    },
    {
      "type": "Feature",
      "properties": {
        "norad_id": 42741,
        "name": "EUTELSAT 172B",
        "group": "eutelsat",
        "lat": 0.0007115156176510317,
        "lon": 176.003869910901,
        "alt_km": 35786.506215172856,
        "timestamp": "2025-12-10T18:56:59.733527+00:00",
        "meta_object_name": "EUTELSAT 172B",
        "meta_object_id": "2017-029B",
        "meta_epoch": "2025-12-10T11:35:38.860224",
        "meta_mean_motion": 1.00269386,
        "meta_eccentricity": 1.21e-05,
        "meta_inclination": 0.0146,
        "meta_ra_of_asc_node": 95.7026,
        "meta_arg_of_pericenter": 142.5294,
        "meta_mean_anomaly": 187.14,
        "meta_ephemeris_type": 0,
        "meta_classification_type": "U",
        "meta_norad_cat_id": 42741,
        "meta_element_set_no": 999,
        "meta_rev_at_epoch": 3183,
        "meta_bstar": 0,
        "meta_mean_motion_dot": -2e-08,
        "meta_mean_motion_ddot": 0,
        "tle_line1": "1 42741U 17029B   25344.48308866 -.00000002  00000+0  00000+0 0  9999",
        "tle_line2": "2 42741   0.0146  95.7026 0000121 142.5294 187.1400  1.00269386 31832"
      },
      "geometry": {
        "type": "Point",
        "coordinates": [
          176.003869910901,
          0.0007115156176510317
        ]
      }
    }
  ]
}